DMSP 5D-3 F16 (USA 172) 
1 28054U 03048A   26062.20425068  .00000159  00000+0  10678-3 0  9996
2 28054  98.9998  85.2824 0008198  88.7847 350.5303 14.14458974154501
METEOSAT-9 (MSG-2)      
1 28912U 05049B   26062.09632663  .00000113  00000+0  00000+0 0  9994
2 28912   9.1220  55.1947 0001870 220.2001 325.8556  1.00276507  5931
DMSP 5D-3 F17 (USA 191) 
1 29522U 06050A   26062.17243149  .00000202  00000+0  12665-3 0  9994
2 29522  98.7412  70.9001 0010132   5.5706 354.5579 14.14960394997420
FENGYUN 3A              
1 32958U 08026A   26061.82771838  .00000118  00000+0  76469-4 0  9997
2 32958  98.6790   4.7076 0009830  75.9488 284.2781 14.19543813920319
GOES 14                 
1 35491U 09033A   26062.12744012  .00000114  00000+0  00000+0 0  9998
2 35491   1.4156  84.4389 0002190 295.8945  28.9504  1.00123619  5524
DMSP 5D-3 F18 (USA 210) 
1 35951U 09057A   26062.13548728  .00000298  00000+0  17760-3 0  9990
2 35951  98.8953  43.1872 0010763 187.0418 173.0605 14.14830790844597
EWS-G2 (GOES 15)        
1 36411U 10008A   26062.09987998  .00000006  00000+0  00000+0 0  9993
2 36411   1.0058  85.1718 0001668  23.7748 151.3712  1.00269225 58575
COMS 1                  
1 36744U 10032A   26061.81745456 -.00000359  00000+0  00000+0 0  9991
2 36744   4.5320  76.8967 0001163 272.6803 233.4605  1.00272530 50022
FENGYUN 3B              
1 37214U 10059A   26062.22855655 -.00000162  00000+0 -60657-4 0  9994
2 37214  98.9784 107.7260 0022964 125.5929 314.2137 14.14814579792444
SUOMI NPP               
1 37849U 11061A   26062.18814582  .00000105  00000+0  70687-4 0  9990
2 37849  98.7863   3.8427 0000441 293.3252  66.7877 14.19541363743409
METEOSAT-10 (MSG-3)     
1 38552U 12035B   26061.73080794 -.00000019  00000+0  00000+0 0  9996
2 38552   4.4198  61.4700 0002487 292.1297  70.2445  1.00276905 49793
METOP-B                 
1 38771U 12049A   26062.10984919  .00000134  00000+0  81125-4 0  9997
2 38771  98.6655 115.6570 0001240 302.2211  57.8846 14.21442069698194
INSAT-3D                
1 39216U 13038B   26061.97034322 -.00000354  00000+0  00000+0 0  9992
2 39216   1.6518  83.9345 0001804 238.4653 317.1344  1.00273934 46013
FENGYUN 3C              
1 39260U 13052A   26062.17374839  .00000146  00000+0  95582-4 0  9992
2 39260  98.4881  40.9756 0014150 332.8381  27.2052 14.15726401643563
METEOR-M 2              
1 40069U 14037A   26062.20733118  .00000535  00000+0  26412-3 0  9995
2 40069  98.5008  41.7575 0005776 356.8575   3.2566 14.21426488604264
HIMAWARI-8              
1 40267U 14060A   26061.83377823 -.00000292  00000+0  00000+0 0  9998
2 40267   0.0178 119.6241 0000868 185.8972 295.8861  1.00270021 41695
FENGYUN 2G              
1 40367U 14090A   26062.03577688 -.00000316  00000+0  00000+0 0  9993
2 40367   5.3704  74.1018 0001998 153.0682  46.1729  1.00274940 40936
